{
  "type": "FeatureCollection",
  "features": [
    {
      "type": "Feature",
      "properties": {
        "norad_id": 66850,
        "name": "STARLINK-36105",
        "group": "last-30-days",
        "lat": -41.057746568017514,
        "lon": -46.447845802806974,
        "alt_km": 369.11783626802116,
        "timestamp": "2025-12-22T05:49:02.186807+00:00",
        "meta_object_name": "STARLINK-36105",
        "meta_object_id": "2025-281C",
        "meta_epoch": "2025-12-21T20:00:01.999008",
        "meta_mean_motion": 15.68977105,
        "meta_eccentricity": 0.0001335,
        "meta_inclination": 43.0003,
        "meta_ra_of_asc_node": 66.8188,
        "meta_arg_of_pericenter": 286.079,
        "meta_mean_anomaly": 176.5207,
        "meta_ephemeris_type": 0,
        "meta_classification_type": "U",
        "meta_norad_cat_id": 66850,
        "meta_element_set_no": 999,
        "meta_rev_at_epoch": 285,
        "meta_bstar": -0.018575,
        "meta_mean_motion_dot": -0.01949992,
        "meta_mean_motion_ddot": 0,
        "tle_line1": "1 66850U 25281C   25355.83335647 -.01949992  00000+0 -18575-1 0  9993",
        "tle_line2": "2 66850  43.0003  66.8188 0001335 286.0790 176.5207 15.68977105  2850"
      },
      "geometry": {
        "type": "Point",
        "coordinates": [
          -46.447845802806974,
          -41.057746568017514
        ]
      }
    },
    {
      "type": "Feature",
      "properties": {
        "norad_id": 66851,
        "name": "STARLINK-36094",
        "group": "last-30-days",
        "lat": -41.496501910609126,
        "lon": -43.96286188586083,
        "alt_km": 369.0478617467197,
        "timestamp": "2025-12-22T05:49:02.186817+00:00",
        "meta_object_name": "STARLINK-36094",
        "meta_object_id": "2025-281D",
        "meta_epoch": "2025-12-21T20:00:01.999008",
        "meta_mean_motion": 15.68950111,
        "meta_eccentricity": 0.0001651,
        "meta_inclination": 43.0002,
        "meta_ra_of_asc_node": 66.8134,
        "meta_arg_of_pericenter": 285.8893,
        "meta_mean_anomaly": 178.6888,
        "meta_ephemeris_type": 0,
        "meta_classification_type": "U",
        "meta_norad_cat_id": 66851,
        "meta_element_set_no": 999,
        "meta_rev_at_epoch": 285,
        "meta_bstar": -0.01877,
        "meta_mean_motion_dot": -0.01966274,
        "meta_mean_motion_ddot": 0,
        "tle_line1": "1 66851U 25281D   25355.83335647 -.01966274  00000+0 -18770-1 0  9993",
        "tle_line2": "2 66851  43.0002  66.8134 0001651 285.8893 178.6888 15.68950111  2859"
      },
      "geometry": {
        "type": "Point",
        "coordinates": [
          -43.96286188586083,
          -41.496501910609126
        ]
      }
    },
    {
      "type": "Feature",
      "properties": {
        "norad_id": 66852,
        "name": "STARLINK-35992",
        "group": "last-30-days",
        "lat": -41.87842271448439,
        "lon": -41.46378570481914,
        "alt_km": 369.1993550898478,
        "timestamp": "2025-12-22T05:49:02.186829+00:00",
        "meta_object_name": "STARLINK-35992",
        "meta_object_id": "2025-281E",
        "meta_epoch": "2025-12-21T20:00:01.999008",
        "meta_mean_motion": 15.6897823,
        "meta_eccentricity": 0.0001225,
        "meta_inclination": 43.0003,
        "meta_ra_of_asc_node": 66.8091,
        "meta_arg_of_pericenter": 288.0679,
        "meta_mean_anomaly": 178.367,
        "meta_ephemeris_type": 0,
        "meta_classification_type": "U",
        "meta_norad_cat_id": 66852,
        "meta_element_set_no": 999,
        "meta_rev_at_epoch": 285,
        "meta_bstar": -0.0186,
        "meta_mean_motion_dot": -0.01952251,
        "meta_mean_motion_ddot": 0,
        "tle_line1": "1 66852U 25281E   25355.83335647 -.01952251  00000+0 -18600-1 0  9996",
        "tle_line2": "2 66852  43.0003  66.8091 0001225 288.0679 178.3670 15.68978230  2855"
      },
      "geometry": {
        "type": "Point",
        "coordinates": [
          -41.46378570481914,
          -41.87842271448439
        ]
      }
    },
    {
      "type": "Feature",
      "properties": {
        "norad_id": 66853,
        "name": "STARLINK-35986",
        "group": "last-30-days",
        "lat": -42.20596507923343,
        "lon": -38.931114836414174,
        "alt_km": 369.10291437931664,
        "timestamp": "2025-12-22T05:49:02.186841+00:00",
        "meta_object_name": "STARLINK-35986",
        "meta_object_id": "2025-281F",
        "meta_epoch": "2025-12-21T20:00:01.999008",
        "meta_mean_motion": 15.68972033,
        "meta_eccentricity": 0.0001359,
        "meta_inclination": 43.0003,
        "meta_ra_of_asc_node": 66.8043,
        "meta_arg_of_pericenter": 287.5849,
        "meta_mean_anomaly": 180.7688,
        "meta_ephemeris_type": 0,
        "meta_classification_type": "U",
        "meta_norad_cat_id": 66853,
        "meta_element_set_no": 999,
        "meta_rev_at_epoch": 285,
        "meta_bstar": -0.018514,
        "meta_mean_motion_dot": -0.01943921,
        "meta_mean_motion_ddot": 0,
        "tle_line1": "1 66853U 25281F   25355.83335647 -.01943921  00000+0 -18514-1 0  9995",
        "tle_line2": "2 66853  43.0003  66.8043 0001359 287.5849 180.7688 15.68972033  2855"
      },
      "geometry": {
        "type": "Point",
        "coordinates": [
          -38.931114836414174,
          -42.20596507923343
        ]
      }
    },
    {
      "type": "Feature",
      "properties": {
        "norad_id": 66854,
        "name": "STARLINK-36087",
        "group": "last-30-days",
        "lat": -42.47825235926594,
        "lon": -36.36382377042206,
        "alt_km": 369.4499973205866,
        "timestamp": "2025-12-22T05:49:02.186852+00:00",
        "meta_object_name": "STARLINK-36087",
        "meta_object_id": "2025-281G",
        "meta_epoch": "2025-12-21T20:00:01.999008",
        "meta_mean_motion": 15.68942127,
        "meta_eccentricity": 9.9e-05,
        "meta_inclination": 43.0005,
        "meta_ra_of_asc_node": 66.7991,
        "meta_arg_of_pericenter": 283.0659,
        "meta_mean_anomaly": 187.2527,
        "meta_ephemeris_type": 0,
        "meta_classification_type": "U",
        "meta_norad_cat_id": 66854,
        "meta_element_set_no": 999,
        "meta_rev_at_epoch": 285,
        "meta_bstar": -0.0185,
        "meta_mean_motion_dot": -0.01940209,
        "meta_mean_motion_ddot": 0,
        "tle_line1": "1 66854U 25281G   25355.83335647 -.01940209  00000+0 -18500-1 0  9997",
        "tle_line2": "2 66854  43.0005  66.7991 0000990 283.0659 187.2527 15.68942127  2854"
      },
      "geometry": {
        "type": "Point",
        "coordinates": [
          -36.36382377042206,
          -42.47825235926594
        ]
      }
    },
    {
      "type": "Feature",
      "properties": {
        "norad_id": 66855,
        "name": "STARLINK-36090",
        "group": "last-30-days",
        "lat": -42.6915140986332,
        "lon": -33.78657520700094,
        "alt_km": 369.1341800654491,
        "timestamp": "2025-12-22T05:49:02.186861+00:00",
        "meta_object_name": "STARLINK-36090",
        "meta_object_id": "2025-281H",
        "meta_epoch": "2025-12-21T20:00:01.999008",
        "meta_mean_motion": 15.68978315,
        "meta_eccentricity": 0.000121,
        "meta_inclination": 43.0004,
        "meta_ra_of_asc_node": 66.7944,
        "meta_arg_of_pericenter": 282.642,
        "meta_mean_anomaly": 189.5449,
        "meta_ephemeris_type": 0,
        "meta_classification_type": "U",
        "meta_norad_cat_id": 66855,
        "meta_element_set_no": 999,
        "meta_rev_at_epoch": 273,
        "meta_bstar": -0.018605,
        "meta_mean_motion_dot": -0.01952743,
        "meta_mean_motion_ddot": 0,
        "tle_line1": "1 66855U 25281H   25355.83335647 -.01952743  00000+0 -18605-1 0  9990",
        "tle_line2": "2 66855  43.0004  66.7944 0001210 282.6420 189.5449 15.68978315  2732"
      },
      "geometry": {
        "type": "Point",
        "coordinates": [
          -33.78657520700094,
          -42.6915140986332
        ]
      }
    },
    {
      "type": "Feature",
      "properties": {
        "norad_id": 66856,
        "name": "STARLINK-36072",
        "group": "last-30-days",
        "lat": -42.84615448721516,
        "lon": -31.19567121080938,
        "alt_km": 369.1744656684341,
        "timestamp": "2025-12-22T05:49:02.186873+00:00",
        "meta_object_name": "STARLINK-36072",
        "meta_object_id": "2025-281J",
        "meta_epoch": "2025-12-21T20:00:01.999008",
        "meta_mean_motion": 15.68981052,
        "meta_eccentricity": 0.0001185,
        "meta_inclination": 43.0001,
        "meta_ra_of_asc_node": 66.7893,
        "meta_arg_of_pericenter": 286.5765,
        "meta_mean_anomaly": 187.5241,
        "meta_ephemeris_type": 0,
        "meta_classification_type": "U",
        "meta_norad_cat_id": 66856,
        "meta_element_set_no": 999,
        "meta_rev_at_epoch": 285,
        "meta_bstar": -0.018633,
        "meta_mean_motion_dot": -0.01955519,
        "meta_mean_motion_ddot": 0,
        "tle_line1": "1 66856U 25281J   25355.83335647 -.01955519  00000+0 -18633-1 0  9996",
        "tle_line2": "2 66856  43.0001  66.7893 0001185 286.5765 187.5241 15.68981052  2852"
      },
      "geometry": {
        "type": "Point",
        "coordinates": [
          -31.19567121080938,
          -42.84615448721516
        ]
      }
    }
  ]
}